SL-14 R/B               
1 20466U 90010B   26190.35653204  .00000271  00000+0  29916-4 0  9994
2 20466  82.5031 153.1250 0018196 258.0804 101.8371 14.83660783946521
SL-14 R/B               
1 20511U 90018B   26190.22147486  .00000282  00000+0  32342-4 0  9998
2 20511  82.5223 109.5139 0017412  55.2414 305.0437 14.82231639940584
HST                     
1 20580U 90037B   26189.72127744  .00004866  00000+0  15029-3 0  9997
2 20580  28.4736 293.3726 0001994  41.8079 318.2669 15.31013397791871
SL-16 R/B               
1 20625U 90046B   26190.00383485 -.00000050  00000+0 -14185-5 0  9993
2 20625  70.9983  43.1285 0012487 125.2782 234.9511 14.15022786865555
COSMOS 2084             
1 20663U 90055A   26190.23639253  .00001201  00000+0  95316-4 0  9998
2 20663  62.7905 280.8289 0007369 312.2608  47.7867 15.06210349954628
SL-6 R/B(2)             
1 20666U 90055D   26190.72095213  .00001171  00000+0  97249-4 0  9990
2 20666  62.7799 198.6917 0044265   8.2561 351.9257 15.04073794956547
SL-8 R/B                
1 20775U 90078B   26189.91119699  .00016326  00000+0  46255-3 0  9998
2 20775  82.9023 141.9992 0344547 324.9410  32.9553 14.93408823827367
SL-8 R/B                
1 21088U 91006B   26190.16330024  .00000057  00000+0  41523-4 0  9992
2 21088  82.9417  79.6847 0023696  56.5740  97.0694 13.77508388780792
OKEAN-3                 
1 21397U 91039A   26190.60564024  .00001388  00000+0  94687-4 0  9996
2 21397  82.5137 218.6398 0012010 275.7545  84.2313 15.05416567883376
COSMOS 2151             
1 21422U 91042A   26190.80016317  .00001214  00000+0  94070-4 0  9992
2 21422  82.4977 325.8569 0012498  13.7135 346.4426 15.00504298881507
SL-14 R/B               
1 21423U 91042B   26190.70534080  .00000223  00000+0  25192-4 0  9992
2 21423  82.4936 105.7799 0016490 195.1082 164.9642 14.81916187871149
ERS-1                   
1 21574U 91050A   26190.68519549  .00000154  00000+0  63975-4 0  9992
2 21574  98.7794 211.9326 0031553 198.2061 161.7999 14.39530485833281
ARIANE 40 R/B           
1 21610U 91050F   26189.75318209  .00000185  00000+0  67635-4 0  9990
2 21610  98.1864 237.3288 0004370  75.3560 284.8115 14.42969614836452
INTERCOSMOS 25          
1 21819U 91086A   26190.14997343  .00001125  00000+0  22159-3 0  9993
2 21819  82.6018 236.5193 1484276 214.9742 134.4497 12.12233409511408
SL-8 R/B                
1 21876U 92008B   26190.69063948  .00000127  00000+0  11467-3 0  9997
2 21876  82.9267 177.0557 0035359 151.6373  21.7909 13.75982559726190
SL-8 R/B                
1 21938U 92020B   26190.11263219  .00000022  00000+0  76121-5 0  9994
2 21938  82.9291  63.5702 0028231 321.2174 191.9018 13.75550322717822
USA 81                  
1 21949U 92023A   26190.55894800  .00000106  00000+0  31649-4 0  9991
2 21949  85.0056  61.0934 0002229  66.9776 293.1651 14.32403925112239
COSMOS 2219             
1 22219U 92076A   26190.26063133 -.00000086  00000+0 -20472-4 0  9996
2 22219  71.0616 123.9288 0017874   6.9103 353.2263 14.14110057735562
SL-16 R/B               
1 22220U 92076B   26190.55641220  .00000180  00000+0  11353-3 0  9999
2 22220  71.0008 291.6595 0014986 269.2830 179.5704 14.16874871739099
COSMOS 2221             
1 22236U 92080A   26190.67139620  .00001129  00000+0  96602-4 0  9995
2 22236  82.5041 162.2222 0015380 137.2141 223.0281 14.96593877799035
SL-16 R/B               
1 22285U 92093B   26190.22063637 -.00000042  00000+0  26417-5 0  9990
2 22285  71.0224 109.1374 0002608 148.1428 211.9853 14.15467051730357
COSMOS 2228             
1 22286U 92094A   26190.73766221  .00001233  00000+0  10286-3 0  9994
2 22286  82.5190 120.4432 0016054 249.2666 110.6836 14.97665025794329
SL-16 R/B               
1 22566U 93016B   26190.62708409 -.00000097  00000+0 -25504-4 0  9991
2 22566  71.0084 319.0751 0009031 148.0676 212.0995 14.15311517719424
COSMOS 2242             
1 22626U 93024A   26190.64061883  .00001249  00000+0  10622-3 0  9999
2 22626  82.5195 150.0606 0014390 253.2769 106.6874 14.96973984798634
SL-16 R/B               
1 22803U 93059B   26189.94631462 -.00000153  00000+0 -51681-4 0  9997
2 22803  70.9907 115.4183 0016317  18.1304 342.0398 14.17251142696713
ARIANE 40 R/B           
1 22830U 93061H   26190.20120709  .00000110  00000+0  56035-4 0  9997
2 22830  98.4808 256.5999 0009471 285.7966  74.2173 14.32917022711502
COSMOS 2278             
1 23087U 94023A   26190.24168409 -.00000208  00000+0 -83819-4 0  9994
2 23087  71.0534 280.7825 0009930 214.6545 145.3931 14.14394142661992
SL-16 R/B               
1 23088U 94023B   26189.95083754 -.00000153  00000+0 -54380-4 0  9990
2 23088  70.9977 176.2254 0001545 150.3353 209.7858 14.15024143663249
SL-16 R/B               
1 23343U 94074B   26190.12436581  .00000276  00000+0  43426-4 0  9994
2 23343  97.6985 215.9305 0006665 172.8784 231.6966 14.79520997705206
SL-16 R/B               
1 23405U 94077B   26190.73309817 -.00000290  00000+0 -12372-3 0  9997
2 23405  70.9829  95.7312 0004058 307.6531  52.4223 14.15575812633504
